

*******************************************************************************
Ephemeris / WWW_USER Sat Jan  4 13:13:53 2025 Pasadena, USA      / Horizons
*******************************************************************************
Target body name: {Unspecified by user} (-801804) {source: USER-INPUT TLE}
Center body name: Earth (399)                     {source: DE441}
Center-site name: BODY CENTER
*******************************************************************************
Start time      : A.D. 2024-Jan-01 00:00:00.0000 TDB
Stop  time      : A.D. 2024-Jul-01 00:00:00.0000 TDB
Step-size       : 24 minutes
*******************************************************************************
Center geodetic : 0.0, 0.0, 0.0                   {E-lon(deg),Lat(deg),Alt(km)}
Center cylindric: 0.0, 0.0, 0.0                   {E-lon(deg),Dxy(km),Dz(km)}
Center radii    : 6378.137, 6378.137, 6356.752 km {Equator_a, b, pole_c}
Keplerian GM    : 3.9860043550702260E+05 km^3/s^2
Output units    : KM-S, deg, Julian Day Number (Tp)
Calendar mode   : Mixed Julian/Gregorian
Output type     : GEOMETRIC osculating elements
Output format   : 10
EOP file        : eop.250103.p250401
EOP coverage    : DATA-BASED 1962-JAN-20 TO 2025-JAN-03. PREDICTS-> 2025-MAR-31
Reference frame : ICRF
*******************************************************************************
            JDTDB,            Calendar Date (TDB),                     EC,                     QR,                     IN,                     OM,                      W,                     Tp,                      N,                     MA,                     TA,                      A,                     AD,                     PR,
**************************************************************************************************************************************************************************************************************************************************************************************************************************************************
$$SOE
2460471.500000000, A.D. 2024-Jun-10 00:00:00.0000,  1.337798557617683E-01,  6.869745605954177E+03,  7.979042907066471E+01,  1.828758285459420E+02,  2.859250786760817E+02,  2.460471465935758E+06,  5.121803978593333E-02,  1.507424013905863E+02,  1.572632017862650E+02,  7.930715594239088E+03,  8.991685582523998E+03,  7.028773484979632E+03,
2460471.516666667, A.D. 2024-Jun-10 00:24:00.0000,  1.327129337470162E-01,  6.885054408730409E+03,  7.979682051262640E+01,  1.828549645339310E+02,  2.863578236743855E+02,  2.460471547479444E+06,  5.114165247748678E-02,  2.238494661057659E+02,  2.144848652142068E+02,  7.938610728367613E+03,  8.992167048004816E+03,  7.039271954665069E+03,
2460471.533333333, A.D. 2024-Jun-10 00:48:00.0000,  1.329236390303994E-01,  6.886986398000034E+03,  7.979858106543807E+01,  1.828509288318185E+02,  2.861586416962415E+02,  2.460471547438960E+06,  5.110150588795615E-02,  2.977212599153702E+02,  2.832685417677040E+02,  7.942768028295362E+03,  8.998549658590691E+03,  7.044802178419688E+03,
2460471.550000000, A.D. 2024-Jun-10 01:12:00.0000,  1.318720107799953E-01,  6.886989968023930E+03,  7.979323420577778E+01,  1.828272039441346E+02,  2.858671925420458E+02,  2.460471547394088E+06,  5.119446148659089E-02,  1.152647211038513E+01,  1.511980853485473E+01,  7.933150472675984E+03,  8.979310977328038E+03,  7.032010681356478E+03,
2460471.566666667, A.D. 2024-Jun-10 01:36:00.0000,  1.323714751492065E-01,  6.890718276136759E+03,  7.979914731631480E+01,  1.828222750948406E+02,  2.860572533054726E+02,  2.460471547419153E+06,  5.110877927326550E-02,  8.499314267619052E+01,  1.001463496636996E+02,  7.942014443706492E+03,  8.993310611276225E+03,  7.043799619536451E+03,
2460471.583333333, A.D. 2024-Jun-10 02:00:00.0000,  1.338866216796742E-01,  6.868821714045729E+03,  7.979043144838617E+01,  1.828038870914690E+02,  2.858422383688019E+02,  2.460471547456284E+06,  5.121890283485901E-02,  1.587671833025018E+02,  1.635650758483175E+02,  7.930626504542161E+03,  8.992431295038592E+03,  7.028655048717445E+03,
2460471.600000000, A.D. 2024-Jun-10 02:24:00.0000,  1.325408681008170E-01,  6.887772814929873E+03,  7.979814961683471E+01,  1.827845938879389E+02,  2.861286880327141E+02,  2.460471628969124E+06,  5.112659038958182E-02,  2.320336064760720E+02,  2.212341252043863E+02,  7.940169815089778E+03,  8.992566815249684E+03,  7.041345750945246E+03,
2460471.616666667, A.D. 2024-Jun-10 02:48:00.0000,  1.328375919067846E-01,  6.885617165793820E+03,  7.979719161989999E+01,  1.827808165907572E+02,  2.861081214084810E+02,  2.460471628953408E+06,  5.112435854290286E-02,  3.057276842928181E+02,  2.921787970343877E+02,  7.940400900143325E+03,  8.995184634492831E+03,  7.041653142657877E+03,
2460471.633333333, A.D. 2024-Jun-10 03:12:00.0000,  1.322709012243010E-01,  6.886882725982451E+03,  7.979525004896126E+01,  1.827558342309810E+02,  2.856832169115138E+02,  2.460471628886447E+06,  5.116037600358975E-02,  1.965637955886753E+01,  2.567545922253203E+01,  7.936673710377269E+03,  8.986464694772087E+03,  7.036695742320972E+03,
2460471.650000000, A.D. 2024-Jun-10 03:36:00.0000,  1.323764708827456E-01,  6.888933161972978E+03,  7.979805312404162E+01,  1.827522462764751E+02,  2.857809074497178E+02,  2.460471628895940E+06,  5.112820452804996E-02,  9.322669710460575E+01,  1.080647493036075E+02,  7.940002697923580E+03,  8.991072233874182E+03,  7.041123452760732E+03,
2460471.666666667, A.D. 2024-Jun-10 04:00:00.0000,  1.339243887769239E-01,  6.868683120653171E+03,  7.979068307733030E+01,  1.827319403703954E+02,  2.857685718628091E+02,  2.460471628976966E+06,  5.121710286774728E-02,  1.667828676413966E+02,  1.697965551080760E+02,  7.930812312048811E+03,  8.992941503444450E+03,  7.028902062843958E+03,
2460471.683333333, A.D. 2024-Jun-10 04:24:00.0000,  1.324255869646113E-01,  6.890015794018444E+03,  7.979938198360473E+01,  1.827144905378883E+02,  2.858840536401462E+02,  2.460471710453550E+06,  5.111181383707053E-02,  2.402354770425749E+02,  2.281546112917694E+02,  7.941700089923465E+03,  8.993384385828487E+03,  7.043381421515863E+03,
2460471.700000000, A.D. 2024-Jun-10 04:48:00.0000,  1.326261056494632E-01,  6.884783759298258E+03,  7.979561270175495E+01,  1.827101805832181E+02,  2.860500978446417E+02,  2.460471710467633E+06,  5.115234885450019E-02,  3.137376381348800E+02,  3.014403549157727E+02,  7.937504003914452E+03,  8.990224248530647E+03,  7.037799984982088E+03,
2460471.716666667, A.D. 2024-Jun-10 05:12:00.0000,  1.326282627286675E-01,  6.887088680414830E+03,  7.979731821622876E+01,  1.826851558504140E+02,  2.855679538241025E+02,  2.460471710390729E+06,  5.112648133403201E-02,  2.772287661756340E+01,  3.596989200283414E+01,  7.940181106293531E+03,  8.993273532172232E+03,  7.041360770516557E+03,
2460471.733333333, A.D. 2024-Jun-10 05:36:00.0000,  1.324676535788922E-01,  6.886478633255003E+03,  7.979685956976175E+01,  1.826818411179835E+02,  2.855068069364358E+02,  2.460471710375190E+06,  5.114747813440911E-02,  1.014552991750414E+02,  1.157105843985959E+02,  7.938007915974866E+03,  8.989537198694728E+03,  7.038470187209728E+03,
2460471.750000000, A.D. 2024-Jun-10 06:00:00.0000,  1.338913542516571E-01,  6.869328836772175E+03,  7.979117460661833E+01,  1.826600401196285E+02,  2.856952993302297E+02,  2.460471710495577E+06,  5.121281139305456E-02,  1.747986556938822E+02,  1.759899092770595E+02,  7.931255357504112E+03,  8.993181878236050E+03,  7.029491063027696E+03,
2460471.766666667, A.D. 2024-Jun-10 06:24:00.0000,  1.323782564245602E-01,  6.891625024618958E+03,  7.980045237098837E+01,  1.826446420489400E+02,  2.856340236979197E+02,  2.460471791934696E+06,  5.109809376835549E-02,  2.484447997336259E+02,  2.352627149538451E+02,  7.943121614516951E+03,  8.994618204414943E+03,  7.045272601205023E+03,
2460471.783333333, A.D. 2024-Jun-10 06:48:00.0000,  1.323067331026613E-01,  6.884598889845844E+03,  7.979401989227257E+01,  1.826389486798911E+02,  2.859561169104188E+02,  2.460471791976336E+06,  5.118266489496557E-02,  3.217790678516139E+02,  3.110715247517541E+02,  7.934369382009272E+03,  8.984139874172699E+03,  7.033631420692405E+03,
2460471.800000000, A.D. 2024-Jun-10 07:12:00.0000,  1.328694539569817E-01,  6.887753606257425E+03,  7.979919179536691E+01,  1.826151153068119E+02,  2.854970000442054E+02,  2.460471791902323E+06,  5.109775744204589E-02,  3.574999680272223E+01,  4.596603866293172E+01,  7.943156468986533E+03,  8.998559331715642E+03,  7.045318973309254E+03,
2460471.816666667, A.D. 2024-Jun-10 07:36:00.0000,  1.326329621936330E-01,  6.883555104347799E+03,  7.979566131540606E+01,  1.826110746877309E+02,  2.852494205162195E+02,  2.460471791859586E+06,  5.116543814621060E-02,  1.096645088040995E+02,  1.230959139590367E+02,  7.936150215895683E+03,  8.988745327443567E+03,  7.035999554450453E+03,
2460471.833333333, A.D. 2024-Jun-10 08:00:00.0000,  1.337914301813831E-01,  6.870711739719197E+03,  7.979188955492197E+01,  1.825882351239826E+02,  2.856139545651099E+02,  2.460471873380331E+06,  5.120621069019249E-02,  1.828234078342682E+02,  1.821767941843608E+02,  7.931936925027095E+03,  8.993162110334993E+03,  7.030397194943204E+03,
2460471.850000000, A.D. 2024-Jun-10 08:24:00.0000,  1.324017606638611E-01,  6.892493054997603E+03,  7.980129395433558E+01,  1.825750199728308E+02,  2.853907320079340E+02,  2.460471873415065E+06,  5.108636524767452E-02,  2.566491355448028E+02,  2.425733065714825E+02,  7.944337300951117E+03,  8.996181546904631E+03,  7.046890070465278E+03,
2460471.866666667, A.D. 2024-Jun-10 08:48:00.0000,  1.319328052787679E-01,  6.884998612236894E+03,  7.979262436811914E+01,  1.825671169795609E+02,  2.858014830006804E+02,  2.460471873474730E+06,  5.121129372218494E-02,  3.298766627034331E+02,  3.210723172887526E+02,  7.931412054395072E+03,  8.977825496553251E+03,  7.029699385314426E+03,
